IRIDIUM 135             
1 43070U 17083A   26160.68633275  .00000007  00000+0 -46304-5 0  9997
2 43070  86.3959 325.1524 0002073  91.5606 268.5828 14.34217620443074
IRIDIUM 138             
1 43071U 17083B   26160.71170426  .00000128  00000+0  38517-4 0  9995
2 43071  86.3975 324.8359 0002403  87.9697 272.1774 14.34217844443069
IRIDIUM 116             
1 43072U 17083C   26160.74975864  .00000089  00000+0  24542-4 0  9997
2 43072  86.3958 325.1118 0001886  94.8797 265.2614 14.34217603443104
IRIDIUM 130             
1 43073U 17083D   26160.71804452 -.00000079  00000+0 -35110-4 0  9993
2 43073  86.3963 325.3996 0001853  88.4214 271.7195 14.34217707443048
IRIDIUM 151             
1 43074U 17083E   26160.69267560  .00000052  00000+0  11428-4 0  9999
2 43074  86.3963 325.1932 0002128  91.3993 268.7447 14.34217607443067
IRIDIUM 134             
1 43075U 17083F   26160.73073097 -.00000006  00000+0 -92836-5 0  9999
2 43075  86.3958 325.1852 0001980  89.4280 270.7143 14.34217571443038
IRIDIUM 137             
1 43076U 17083G   26160.74341624  .00000034  00000+0  52522-5 0  9992
2 43076  86.3963 325.2724 0002040 103.0172 257.1252 14.34217409443103
IRIDIUM 141             
1 43077U 17083H   26160.73707413  .00000042  00000+0  77831-5 0  9993
2 43077  86.3959 325.1064 0002203  90.8120 269.3328 14.34217598443100
IRIDIUM 153             
1 43078U 17083J   26160.61948414  .00000018  00000+0 -59846-6 0  9990
2 43078  86.3955 293.6357 0002227  90.8587 269.2864 14.34217619444192
IRIDIUM 131             
1 43079U 17083K   26160.72438863 -.00000027  00000+0 -16736-4 0  9995
2 43079  86.3961 325.2971 0002092  91.8424 268.3011 14.34217215443033
IRIDIUM 144             
1 43249U 18030A   26160.34675216 -.00000033  00000+0 -18823-4 0  9996
2 43249  86.3949 293.6790 0001939  95.1708 264.9709 14.34217275429010
IRIDIUM 149             
1 43250U 18030B   26160.63216919  .00000019  00000+0 -28068-6 0  9998
2 43250  86.3950 293.5267 0002115  93.4832 266.6606 14.34217625429078
IRIDIUM 157             
1 43251U 18030C   26160.72096570  .00000031  00000+0  41287-5 0  9998
2 43251  86.3954 293.5424 0002192  94.0852 266.0594 14.34217687429069
IRIDIUM 140             
1 43252U 18030D   26160.73999298  .00000012  00000+0 -27648-5 0  9994
2 43252  86.3953 293.5473 0002016  92.7505 267.3922 14.34217561429125
IRIDIUM 145             
1 43253U 18030E   26160.72730626  .00000121  00000+0  35989-4 0  9998
2 43253  86.3953 293.5245 0001902  97.5750 262.5662 14.34218236429051
IRIDIUM 146             
1 43254U 18030F   26160.63851172  .00000028  00000+0  30854-5 0  9992
2 43254  86.3954 293.5739 0002094  95.6308 264.5127 14.34217651429050
IRIDIUM 148             
1 43255U 18030G   26160.46726146 -.00000004  00000+0 -84420-5 0  9990
2 43255  86.3953 293.6888 0002089  97.3061 262.8372 14.34217369429065
IRIDIUM 142             
1 43256U 18030H   26160.64485323  .00000064  00000+0  15652-4 0  9994
2 43256  86.3951 293.5036 0002024  96.3020 263.8406 14.34218068429056
IRIDIUM 150             
1 43257U 18030J   26160.61314123  .00000039  00000+0  68037-5 0  9999
2 43257  86.3956 293.6330 0002134  92.4273 267.7168 14.34217822429076
IRIDIUM 143             
1 43258U 18030K   26160.66388196 -.00000159  00000+0 -64012-4 0  9999
2 43258  86.3956 293.7041 0001936  94.9624 265.1793 14.34216760429013
IRIDIUM 161             
1 43478U 18047C   26160.75059744  .00000284  00000+0  78373-4 0  9997
2 43478  86.4482  91.5802 0002558  87.6304 272.5190 14.43278810424063
IRIDIUM 152             
1 43479U 18047D   26160.56683202  .00000017  00000+0 -91935-6 0  9995
2 43479  86.3958  91.5183 0002365  83.9762 276.1704 14.34217698421397
IRIDIUM 147             
1 43480U 18047E   26160.50340565  .00000060  00000+0  14240-4 0  9992
2 43480  86.3959  91.5497 0002137  84.6699 275.4741 14.34217690421386
IRIDIUM 110             
1 43481U 18047F   26160.50974930 -.00000001  00000+0 -72768-5 0  9999
2 43481  86.3960  91.6388 0002486  85.8565 274.2915 14.34217440421373
IRIDIUM 162             
1 43482U 18047G   26160.74430100  .00000292  00000+0  80926-4 0  9996
2 43482  86.4479  91.4740 0002342  83.2508 276.8959 14.43277484424058
IRIDIUM 160             
1 43569U 18061A   26160.73465829  .00000008  00000+0 -40396-5 0  9997
2 43569  86.3963  59.9131 0002151  86.2882 273.8560 14.34217565412304
IRIDIUM 166             
1 43570U 18061B   26160.20188221  .00000175  00000+0  55462-4 0  9992
2 43570  86.3990  60.0824 0002486  83.0339 277.1140 14.34215535412251
IRIDIUM 158             
1 43571U 18061C   26160.72831544  .00000089  00000+0  24854-4 0  9998
2 43571  86.3965  59.8765 0002263  82.6046 277.5407 14.34217707412294
IRIDIUM 165             
1 43572U 18061D   26160.75368241  .00000131  00000+0  39895-4 0  9990
2 43572  86.3969  59.9121 0002085  85.9722 274.1712 14.34216488412326
IRIDIUM 155             
1 43573U 18061E   26160.78539884  .00000015  00000+0 -15905-5 0  9996
2 43573  86.3962  59.7681 0002173  82.6753 277.4690 14.34217718412299
