OBJECT_NAME,OBJECT_ID,EPOCH,MEAN_MOTION,ECCENTRICITY,INCLINATION,RA_OF_ASC_NODE,ARG_OF_PERICENTER,MEAN_ANOMALY,EPHEMERIS_TYPE,CLASSIFICATION_TYPE,NORAD_CAT_ID,ELEMENT_SET_NO,REV_AT_EPOCH,BSTAR,MEAN_MOTION_DOT,MEAN_MOTION_DDOT
IRIDIUM 135,2017-083A,2026-06-09T16:28:19.149600,14.34217620,.00020736,86.3959,325.1524,91.5606,268.5828,0,U,43070,999,44307,-.4630385E-5,.7E-7,0
IRIDIUM 138,2017-083B,2026-06-09T17:04:51.248064,14.34217844,.00024034,86.3975,324.8359,87.9697,272.1774,0,U,43071,999,44306,.38517003E-4,.128E-5,0
IRIDIUM 116,2017-083C,2026-06-09T17:59:39.146496,14.34217603,.00018862,86.3958,325.1118,94.8797,265.2614,0,U,43072,999,44310,.24542057E-4,.89E-6,0
IRIDIUM 130,2017-083D,2026-06-09T17:13:59.046528,14.34217707,.00018536,86.3963,325.3996,88.4214,271.7195,0,U,43073,999,44304,-.35109779E-4,-.79E-6,0
IRIDIUM 151,2017-083E,2026-06-09T16:37:27.171840,14.34217607,.00021285,86.3963,325.1932,91.3993,268.7447,0,U,43074,999,44306,.11428323E-4,.52E-6,0
IRIDIUM 134,2017-083F,2026-06-09T17:32:15.155808,14.34217571,.00019804,86.3958,325.1852,89.4280,270.7143,0,U,43075,999,44303,-.9283617E-5,-.6E-7,0
IRIDIUM 137,2017-083G,2026-06-09T17:50:31.163136,14.34217409,.00020406,86.3963,325.2724,103.0172,257.1252,0,U,43076,999,44310,.525222E-5,.34E-6,0
IRIDIUM 141,2017-083H,2026-06-09T17:41:23.204832,14.34217598,.00022034,86.3959,325.1064,90.8120,269.3328,0,U,43077,999,44310,.7783071E-5,.42E-6,0
IRIDIUM 153,2017-083J,2026-06-09T14:52:03.429696,14.34217619,.00022271,86.3955,293.6357,90.8587,269.2864,0,U,43078,999,44419,-.598459E-6,.18E-6,0
IRIDIUM 131,2017-083K,2026-06-09T17:23:07.177632,14.34217215,.00020924,86.3961,325.2971,91.8424,268.3011,0,U,43079,999,44303,-.16735855E-4,-.27E-6,0
IRIDIUM 144,2018-030A,2026-06-09T08:19:19.386624,14.34217275,.00019391,86.3949,293.6790,95.1708,264.9709,0,U,43249,999,42901,-.18822963E-4,-.33E-6,0
IRIDIUM 149,2018-030B,2026-06-09T15:10:19.418016,14.34217625,.00021154,86.3950,293.5267,93.4832,266.6606,0,U,43250,999,42907,-.280681E-6,.19E-6,0
IRIDIUM 157,2018-030C,2026-06-09T17:18:11.436480,14.34217687,.00021924,86.3954,293.5424,94.0852,266.0594,0,U,43251,999,42906,.4128746E-5,.31E-6,0
IRIDIUM 140,2018-030D,2026-06-09T17:45:35.393472,14.34217561,.00020166,86.3953,293.5473,92.7505,267.3922,0,U,43252,999,42912,-.2764785E-5,.12E-6,0
IRIDIUM 145,2018-030E,2026-06-09T17:27:19.260864,14.34218236,.00019025,86.3953,293.5245,97.5750,262.5662,0,U,43253,999,42905,.35989348E-4,.121E-5,0
IRIDIUM 146,2018-030F,2026-06-09T15:19:27.412608,14.34217651,.00020945,86.3954,293.5739,95.6308,264.5127,0,U,43254,999,42905,.3085358E-5,.28E-6,0
IRIDIUM 148,2018-030G,2026-06-09T11:12:51.390144,14.34217369,.0002089,86.3953,293.6888,97.3061,262.8372,0,U,43255,999,42906,-.8442028E-5,-.4E-7,0
IRIDIUM 142,2018-030H,2026-06-09T15:28:35.319072,14.34218068,.00020241,86.3951,293.5036,96.3020,263.8406,0,U,43256,999,42905,.15651651E-4,.64E-6,0
IRIDIUM 150,2018-030J,2026-06-09T14:42:55.402272,14.34217822,.00021347,86.3956,293.6330,92.4273,267.7168,0,U,43257,999,42907,.6803671E-5,.39E-6,0
IRIDIUM 143,2018-030K,2026-06-09T15:55:59.401344,14.34216760,.00019369,86.3956,293.7041,94.9624,265.1793,0,U,43258,999,42901,-.64011772E-4,-.159E-5,0
IRIDIUM 161,2018-047C,2026-06-09T18:00:51.618816,14.43278810,.00025583,86.4482,91.5802,87.6304,272.5190,0,U,43478,999,42406,.78372922E-4,.284E-5,0
IRIDIUM 152,2018-047D,2026-06-09T13:36:14.286528,14.34217698,.00023655,86.3958,91.5183,83.9762,276.1704,0,U,43479,999,42139,-.919354E-6,.17E-6,0
IRIDIUM 147,2018-047E,2026-06-09T12:04:54.248160,14.34217690,.00021375,86.3959,91.5497,84.6699,275.4741,0,U,43480,999,42138,.14239765E-4,.6E-6,0
IRIDIUM 110,2018-047F,2026-06-09T12:14:02.339520,14.34217440,.00024861,86.3960,91.6388,85.8565,274.2915,0,U,43481,999,42137,-.7276821E-5,-.1E-7,0
IRIDIUM 162,2018-047G,2026-06-09T17:51:47.606400,14.43277484,.00023429,86.4479,91.4740,83.2508,276.8959,0,U,43482,999,42405,.80925762E-4,.292E-5,0
IRIDIUM 160,2018-061A,2026-06-09T17:37:54.476256,14.34217565,.00021514,86.3963,59.9131,86.2882,273.8560,0,U,43569,999,41230,-.4039647E-5,.8E-7,0
IRIDIUM 166,2018-061B,2026-06-09T04:50:42.622944,14.34215535,.00024868,86.3990,60.0824,83.0339,277.1140,0,U,43570,999,41225,.55461927E-4,.175E-5,0
IRIDIUM 158,2018-061C,2026-06-09T17:28:46.454016,14.34217707,.00022631,86.3965,59.8765,82.6046,277.5407,0,U,43571,999,41229,.24854303E-4,.89E-6,0
IRIDIUM 165,2018-061D,2026-06-09T18:05:18.160224,14.34216488,.00020851,86.3969,59.9121,85.9722,274.1712,0,U,43572,999,41232,.39894931E-4,.131E-5,0
IRIDIUM 155,2018-061E,2026-06-09T18:50:58.459776,14.34217718,.00021739,86.3962,59.7681,82.6753,277.4690,0,U,43573,999,41229,-.1590548E-5,.15E-6,0
